{
  "type": "FeatureCollection",
  "features": [
    {
      "type": "Feature",
      "properties": {
        "name": "Main corridor (Örnsköldsvik–Uppsala)",
        "kind": "inside",
        "border_km": 10,
        "note": "Coastal strip ~50km inland from Örnsköldsvik to Uppsala, following Härnösand/Sundsvall/Hudiksvall/Söderhamn/Gävle/Älvkarleby; sea-side edge extended into the Bothnian Sea/Baltic to be safe."
      },
      "geometry": {
        "type": "Polygon",
        "coordinates": [[
          [20.02, 63.29],
          [19.24, 62.63],
          [18.61, 62.39],
          [18.40, 61.73],
          [18.36, 61.30],
          [18.44, 60.67],
          [18.75, 60.57],
          [18.64, 59.86],
          [16.74, 59.86],
          [16.14, 60.67],
          [16.06, 61.30],
          [16.10, 61.73],
          [16.31, 62.39],
          [16.94, 62.63],
          [17.72, 63.29],
          [20.02, 63.29]
        ]]
      }
    },
    {
      "type": "Feature",
      "properties": {
        "name": "Sollefteå extension",
        "kind": "extension",
        "border_km": 10,
        "note": "~20km box around Sollefteå (63.17, 17.27)."
      },
      "geometry": {
        "type": "Polygon",
        "coordinates": [[
          [16.92, 63.02],
          [17.62, 63.02],
          [17.62, 63.32],
          [16.92, 63.32],
          [16.92, 63.02]
        ]]
      }
    },
    {
      "type": "Feature",
      "properties": {
        "name": "Ånge extension",
        "kind": "extension",
        "border_km": 10,
        "note": "~20km box around Ånge (62.53, 15.66)."
      },
      "geometry": {
        "type": "Polygon",
        "coordinates": [[
          [15.31, 62.38],
          [16.01, 62.38],
          [16.01, 62.68],
          [15.31, 62.68],
          [15.31, 62.38]
        ]]
      }
    }
  ]
}
